PROX-1                  
1 44339U 19036A   26185.79439382  .00025964  00000+0  25234-2 0  9992
2 44339  23.9963 356.5997 0005282 243.1464 116.8495 14.91076607376104
NPSAT1                  
1 44340U 19036B   26185.91422533  .00009653  00000+0  13748-2 0  9992
2 44340  23.9987 102.2878 0007466  53.6289 306.4895 14.74753330375118
FORMOSAT 7-3            
1 44343U 19036E   26185.76271935  .00007497  00000+0  42911-3 0  9995
2 44343  23.9995  57.5634 0000957 113.2211 246.8394 15.09936454385906
FORMOSAT 7-1            
1 44349U 19036L   26185.91606182  .00003515  00000+0  27536-3 0  9997
2 44349  23.9981 272.8679 0001026  47.1047 312.9540 14.96586906387311
FORMOSAT 7-4            
1 44350U 19036M   26185.80528228  .00004279  00000+0  34085-3 0  9996
2 44350  23.9997 335.7207 0001424  47.2725 312.7896 14.96582301386712
FORMOSAT 7-2            
1 44351U 19036N   26185.89431041  .00003875  00000+0  30625-3 0  9999
2 44351  23.9997  29.4335 0000862  49.3621 310.6955 14.96578734386241
FORMOSAT 7-6            
1 44353U 19036Q   26185.76057245  .00003582  00000+0  28105-3 0  9992
2 44353  23.9965 211.1499 0000722 322.0202  38.0248 14.96585601384458
FORMOSAT 7-5            
1 44358U 19036V   26185.93789575  .00002481  00000+0  18684-3 0  9992
2 44358  23.9965 148.6998 0000561  92.1238 267.9327 14.96561413385015
METEOR-M2 2             
1 44387U 19038A   26185.94667553  .00000104  00000+0  64679-4 0  9994
2 44387  98.9154 173.4949 0001254  21.9011 338.2221 14.24370707363825
GLOBAL-4                
1 44499U 19054E   26185.56493865  .00106521  00000+0  10028-2 0  9994
2 44499  45.0044 136.0113 0003934 113.4500 246.6811 15.66079115383088
ZY-1 02D                
1 44528U 19059A   26185.98412479  .00000083  00000+0  44669-4 0  9996
2 44528  98.6713 247.4904 0003583 337.0254  23.0770 14.35266002356891
TAURUS-1 (JINNIUZUO 1)  
1 44530U 19059C   26185.98204672  .00012286  00000+0  19490-2 0  9993
2 44530  98.6432 351.9168 0007385 252.0094 108.0306 14.72297571361269
ZHUHAI-1 03B            
1 44536U 19060C   26185.94907310  .00045371  00000+0  67106-3 0  9995
2 44536  97.5550 344.6874 0007767 244.8194 115.2255 15.55147606379088
ZHUHAI-1 03D            
1 44538U 19060E   26185.97443178  .00047645  00000+0  82239-3 0  9997
2 44538  97.5402 336.6803 0006924 229.8249 130.2397 15.50845704378832
ZHUHAI-1 03E            
1 44539U 19060F   26185.96687082  .00025313  00000+0  60118-3 0  9991
2 44539  97.5638 336.5393 0004631 323.7209  36.3722 15.41666937378501
GAOFEN-7                
1 44703U 19072A   26185.95801676  .00005541  00000+0  24903-3 0  9996
2 44703  97.2414 246.7538 0016884 339.5243  20.5315 15.21400406370344
JILIN-1 GAOFEN 2A       
1 44777U 19075A   26185.68423992  .00025206  00000+0  63636-3 0  9997
2 44777  97.4960 269.8883 0006221  32.8409 327.3222 15.39801618367578
NINGXIA-1 1             
1 44779U 19076A   26185.92474510  .00000003  00000+0  86252-4 0  9997
2 44779  45.0056 100.5851 0011587 244.7322 115.2311 14.02041060340345
NINGXIA-1 5             
1 44783U 19076E   26185.93742882 -.00000197  00000+0 -43908-4 0  9990
2 44783  45.0053  99.8631 0011230 235.9478 124.0291 14.02087785340262
KL-ALPHA A              
1 44785U 19077A   26185.90312681  .00000049  00000+0  51788-4 0  9999
2 44785  88.9233 220.6275 0013136  62.6869 297.5620 13.56044849328130
CARTOSAT-3              
1 44804U 19081A   26185.94051900  .00005555  00000+0  26603-3 0  9998
2 44804  97.4292 247.5212 0013515  92.6818 267.5964 15.19269213366167
JILIN-1 GAOFEN 2B       
1 44836U 19086A   26185.64915462  .00010862  00000+0  49293-3 0  9994
2 44836  97.4871 257.5322 0012517 255.9608 104.0236 15.20913433363144
TIANQIN 1 (CAS-6)       
1 44879U 19093A   26185.95413961  .00002824  00000+0  25990-3 0  9997
2 44879  97.7798 269.6666 0011024   0.8562 359.2675 14.95519457354707
ETRSS-1                 
1 44880U 19093B   26185.95576264  .00003516  00000+0  31862-3 0  9999
2 44880  97.7814 270.1432 0011189   0.8479 359.2759 14.95963741354718
TIANYAN 01              
1 44881U 19093C   26185.94973549  .00001000  00000+0  11882-3 0  9992
2 44881  97.7522 257.7482 0014405  33.7575 326.4555 14.86547525354052
TIANYAN 02              
1 44882U 19093D   26185.93409028  .00011066  00000+0  77297-3 0  9993
2 44882  97.7943 280.8967 0012588 327.3476  32.6971 15.05450576355282
CBERS 4A                
1 44883U 19093E   26185.98888344  .00000457  00000+0  65210-4 0  9996
2 44883  98.0182 253.4439 0000834 134.7152 225.4128 14.81428741353718
WEILAI 1R               
1 44884U 19093F   26185.92382184  .00007126  00000+0  56411-3 0  9994
2 44884  97.7873 275.8399 0016739 342.3258  17.7381 15.00802323355089
