OBJECT_NAME,OBJECT_ID,EPOCH,MEAN_MOTION,ECCENTRICITY,INCLINATION,RA_OF_ASC_NODE,ARG_OF_PERICENTER,MEAN_ANOMALY,EPHEMERIS_TYPE,CLASSIFICATION_TYPE,NORAD_CAT_ID,ELEMENT_SET_NO,REV_AT_EPOCH,BSTAR,MEAN_MOTION_DOT,MEAN_MOTION_DDOT
PROX-1,2019-036A,2026-07-04T19:03:55.626048,14.91076607,.00052825,23.9963,356.5997,243.1464,116.8495,0,U,44339,999,37610,.25234017E-2,.25964E-3,0
NPSAT1,2019-036B,2026-07-04T21:56:29.068512,14.74753330,.00074662,23.9987,102.2878,53.6289,306.4895,0,U,44340,999,37511,.13747889E-2,.9653E-4,0
FORMOSAT 7-3,2019-036E,2026-07-04T18:18:18.951840,15.09936454,.00009579,23.9995,57.5634,113.2211,246.8394,0,U,44343,999,38590,.42910754E-3,.7497E-4,0
FORMOSAT 7-1,2019-036L,2026-07-04T21:59:07.741248,14.96586906,.00010261,23.9981,272.8679,47.1047,312.9540,0,U,44349,999,38731,.27535526E-3,.3515E-4,0
FORMOSAT 7-4,2019-036M,2026-07-04T19:19:36.388992,14.96582301,.00014247,23.9997,335.7207,47.2725,312.7896,0,U,44350,999,38671,.34085058E-3,.4279E-4,0
FORMOSAT 7-2,2019-036N,2026-07-04T21:27:48.419424,14.96578734,.00008622,23.9997,29.4335,49.3621,310.6955,0,U,44351,999,38624,.30624544E-3,.3875E-4,0
FORMOSAT 7-6,2019-036Q,2026-07-04T18:15:13.459680,14.96585601,.00007222,23.9965,211.1499,322.0202,38.0248,0,U,44353,999,38445,.28105185E-3,.3582E-4,0
FORMOSAT 7-5,2019-036V,2026-07-04T22:30:34.192800,14.96561413,.00005615,23.9965,148.6998,92.1238,267.9327,0,U,44358,999,38501,.1868358E-3,.2481E-4,0
METEOR-M2 2,2019-038A,2026-07-04T22:43:12.765792,14.24370707,.00012542,98.9154,173.4949,21.9011,338.2221,0,U,44387,999,36382,.64679146E-4,.104E-5,0
GLOBAL-4,2019-054E,2026-07-04T13:33:30.699360,15.66079115,.00039348,45.0044,136.0113,113.4500,246.6811,0,U,44499,999,38308,.10028234E-2,.106521E-2,0
ZY-1 02D,2019-059A,2026-07-04T23:37:08.381856,14.35266002,.00035833,98.6713,247.4904,337.0254,23.0770,0,U,44528,999,35689,.44668517E-4,.83E-6,0
TAURUS-1 (JINNIUZUO 1),2019-059C,2026-07-04T23:34:08.836608,14.72297571,.00073858,98.6432,351.9168,252.0094,108.0306,0,U,44530,999,36126,.19489789E-2,.12286E-3,0
ZHUHAI-1 03B,2019-060C,2026-07-04T22:46:39.915840,15.55147606,.00077677,97.5550,344.6874,244.8194,115.2255,0,U,44536,999,37908,.67105729E-3,.45371E-3,0
ZHUHAI-1 03D,2019-060E,2026-07-04T23:23:10.905792,15.50845704,.0006924,97.5402,336.6803,229.8249,130.2397,0,U,44538,999,37883,.82239061E-3,.47645E-3,0
ZHUHAI-1 03E,2019-060F,2026-07-04T23:12:17.638848,15.41666937,.0004631,97.5638,336.5393,323.7209,36.3722,0,U,44539,999,37850,.60118096E-3,.25313E-3,0
GAOFEN-7,2019-072A,2026-07-04T22:59:32.648064,15.21400406,.00168841,97.2414,246.7538,339.5243,20.5315,0,U,44703,999,37034,.24903313E-3,.5541E-4,0
JILIN-1 GAOFEN 2A,2019-075A,2026-07-04T16:25:18.329088,15.39801618,.00062215,97.4960,269.8883,32.8409,327.3222,0,U,44777,999,36757,.63636091E-3,.25206E-3,0
NINGXIA-1 1,2019-076A,2026-07-04T22:11:37.976640,14.02041060,.00115875,45.0056,100.5851,244.7322,115.2311,0,U,44779,999,34034,.8625169E-4,.3E-7,0
NINGXIA-1 5,2019-076E,2026-07-04T22:29:53.850048,14.02087785,.001123,45.0053,99.8631,235.9478,124.0291,0,U,44783,999,34026,-.43908267E-4,-.197E-5,0
KL-ALPHA A,2019-077A,2026-07-04T21:40:30.156384,13.56044849,.0013136,88.9233,220.6275,62.6869,297.5620,0,U,44785,999,32813,.51787843E-4,.49E-6,0
CARTOSAT-3,2019-081A,2026-07-04T22:34:20.841600,15.19269213,.00135159,97.4292,247.5212,92.6818,267.5964,0,U,44804,999,36616,.26602619E-3,.5555E-4,0
JILIN-1 GAOFEN 2B,2019-086A,2026-07-04T15:34:46.959168,15.20913433,.00125174,97.4871,257.5322,255.9608,104.0236,0,U,44836,999,36314,.49293496E-3,.10862E-3,0
TIANQIN 1 (CAS-6),2019-093A,2026-07-04T22:53:57.662304,14.95519457,.00110243,97.7798,269.6666,0.8562,359.2675,0,U,44879,999,35470,.25990355E-3,.2824E-4,0
ETRSS-1,2019-093B,2026-07-04T22:56:17.892096,14.95963741,.00111891,97.7814,270.1432,0.8479,359.2759,0,U,44880,999,35471,.31862113E-3,.3516E-4,0
TIANYAN 01,2019-093C,2026-07-04T22:47:37.146336,14.86547525,.00144051,97.7522,257.7482,33.7575,326.4555,0,U,44881,999,35405,.11881822E-3,.1E-4,0
TIANYAN 02,2019-093D,2026-07-04T22:25:05.400192,15.05450576,.00125889,97.7943,280.8967,327.3476,32.6971,0,U,44882,999,35528,.77297171E-3,.11066E-3,0
CBERS 4A,2019-093E,2026-07-04T23:43:59.529216,14.81428741,.0000834,98.0182,253.4439,134.7152,225.4128,0,U,44883,999,35371,.65209788E-4,.457E-5,0
WEILAI 1R,2019-093F,2026-07-04T22:10:18.206976,15.00802323,.00167398,97.7873,275.8399,342.3258,17.7381,0,U,44884,999,35508,.56410796E-3,.7126E-4,0
